IRIDIUM 33 DEB          
1 33960U 97051BV  26063.53789424  .00036582  00000+0  37767-2 0  9997
2 33960  86.2483 250.7877 0002244 120.3771 293.4165 14.90000403900834
IRIDIUM 33 DEB          
1 33966U 97051CB  26063.81078901  .00003407  00000+0  87470-3 0  9992
2 33966  86.3968  10.7903 0005474 303.0679  78.1346 14.50017794896311
IRIDIUM 33 DEB          
1 34071U 97051CE  26063.52249501  .00003364  00000+0  86431-3 0  9992
2 34071  86.3503 342.2824 0006636 178.9694 181.1525 14.49972278895190
IRIDIUM 33 DEB          
1 34077U 97051CL  26063.30793190  .00013879  00000+0  24964-2 0  9996
2 34077  86.3887  15.5217 0012081 100.1226  52.8841 14.66498220895279
IRIDIUM 33 DEB          
1 34079U 97051CN  26063.51270897  .00027457  00000+0  30629-2 0  9997
2 34079  86.3792 331.3872 0009730  59.3938  62.6803 14.86869979901915
IRIDIUM 33 DEB          
1 34088U 97051CX  26063.33742377  .00065375  00000+0  55534-2 0  9997
2 34088  86.3869 353.0648 0001808  60.5170  60.7136 14.97571719899606
IRIDIUM 33 DEB          
1 34091U 97051DA  26063.28807729  .00080776  00000+0  83703-2 0  9999
2 34091  86.3434  29.2725 0033244  17.5483 342.6883 14.89210988890773
IRIDIUM 33 DEB          
1 34097U 97051DG  26063.65359457  .00004677  00000+0  15558-2 0  9995
2 34097  86.2019 325.2449 0083793  92.5688 268.5104 14.35505793882947
IRIDIUM 33 DEB          
1 34145U 97051DY  26063.38206519  .00003933  00000+0  11489-2 0  9992
2 34145  86.2092 296.1518 0051819 182.8117 177.2800 14.43058007888157
IRIDIUM 33 DEB          
1 34146U 97051DZ  26063.70141169  .00003422  00000+0  88060-3 0  9991
2 34146  86.2838 313.5936 0025974 317.1390  66.6136 14.49707659892948
IRIDIUM 33 DEB          
1 34159U 97051EN  26063.80919760  .00002049  00000+0  65818-3 0  9996
2 34159  86.3546  13.2370 0029194  22.0571 338.1876 14.38737000891393
IRIDIUM 33 DEB          
1 34350U 97051ES  26063.16629911  .00001631  00000+0  45464-3 0  9995
2 34350  86.3309 327.4883 0019130 225.8608 301.5122 14.45677187894696
IRIDIUM 33 DEB          
1 34366U 97051FJ  26063.35861571  .00008236  00000+0  19058-2 0  9990
2 34366  86.3724  13.7811 0017841 222.8739 295.8482 14.54947547893681
IRIDIUM 33 DEB          
1 34375U 97051FT  26063.26048079  .00001366  00000+0  62457-3 0  9999
2 34375  86.4352 149.8658 0100817 227.0158 187.9074 14.18167672878670
IRIDIUM 33 DEB          
1 34376U 97051FU  26063.45652675  .00014172  00000+0  26623-2 0  9997
2 34376  86.3001 329.7610 0022396 254.2155 105.6588 14.64437708892025
IRIDIUM 33 DEB          
1 34486U 97051GB  26063.26206576  .00053100  00000+0  40506-2 0  9993
2 34486  86.3952 334.2350 0008687 154.2055 335.9794 15.01746722902074
