[{"OBJECT_NAME":"IRIDIUM 33 DEB","OBJECT_ID":"1997-051BV","EPOCH":"2026-03-04T12:54:34.062336","MEAN_MOTION":14.90000403,"ECCENTRICITY":0.0002244,"INCLINATION":86.2483,"RA_OF_ASC_NODE":250.7877,"ARG_OF_PERICENTER":120.3771,"MEAN_ANOMALY":293.4165,"EPHEMERIS_TYPE":0,"CLASSIFICATION_TYPE":"U","NORAD_CAT_ID":33960,"ELEMENT_SET_NO":999,"REV_AT_EPOCH":90083,"BSTAR":0.0037767,"MEAN_MOTION_DOT":0.00036582,"MEAN_MOTION_DDOT":0},{"OBJECT_NAME":"IRIDIUM 33 DEB","OBJECT_ID":"1997-051CB","EPOCH":"2026-03-04T19:27:32.170464","MEAN_MOTION":14.50017794,"ECCENTRICITY":0.0005474,"INCLINATION":86.3968,"RA_OF_ASC_NODE":10.7903,"ARG_OF_PERICENTER":303.0679,"MEAN_ANOMALY":78.1346,"EPHEMERIS_TYPE":0,"CLASSIFICATION_TYPE":"U","NORAD_CAT_ID":33966,"ELEMENT_SET_NO":999,"REV_AT_EPOCH":89631,"BSTAR":0.0008747,"MEAN_MOTION_DOT":3.407e-5,"MEAN_MOTION_DDOT":0},{"OBJECT_NAME":"IRIDIUM 33 DEB","OBJECT_ID":"1997-051CE","EPOCH":"2026-03-04T12:32:23.568864","MEAN_MOTION":14.49972278,"ECCENTRICITY":0.0006636,"INCLINATION":86.3503,"RA_OF_ASC_NODE":342.2824,"ARG_OF_PERICENTER":178.9694,"MEAN_ANOMALY":181.1525,"EPHEMERIS_TYPE":0,"CLASSIFICATION_TYPE":"U","NORAD_CAT_ID":34071,"ELEMENT_SET_NO":999,"REV_AT_EPOCH":89519,"BSTAR":0.00086431,"MEAN_MOTION_DOT":3.364e-5,"MEAN_MOTION_DDOT":0},{"OBJECT_NAME":"IRIDIUM 33 DEB","OBJECT_ID":"1997-051CL","EPOCH":"2026-03-04T07:23:25.316160","MEAN_MOTION":14.6649822,"ECCENTRICITY":0.00120819,"INCLINATION":86.3887,"RA_OF_ASC_NODE":15.5217,"ARG_OF_PERICENTER":100.1226,"MEAN_ANOMALY":52.8841,"EPHEMERIS_TYPE":0,"CLASSIFICATION_TYPE":"U","NORAD_CAT_ID":34077,"ELEMENT_SET_NO":999,"REV_AT_EPOCH":89527,"BSTAR":0.0024963923,"MEAN_MOTION_DOT":0.00013879,"MEAN_MOTION_DDOT":0},{"OBJECT_NAME":"IRIDIUM 33 DEB","OBJECT_ID":"1997-051CN","EPOCH":"2026-03-04T12:18:18.055008","MEAN_MOTION":14.86869979,"ECCENTRICITY":0.00097302,"INCLINATION":86.3792,"RA_OF_ASC_NODE":331.3872,"ARG_OF_PERICENTER":59.3938,"MEAN_ANOMALY":62.6803,"EPHEMERIS_TYPE":0,"CLASSIFICATION_TYPE":"U","NORAD_CAT_ID":34079,"ELEMENT_SET_NO":999,"REV_AT_EPOCH":90191,"BSTAR":0.0030628772,"MEAN_MOTION_DOT":0.00027457,"MEAN_MOTION_DDOT":0},{"OBJECT_NAME":"IRIDIUM 33 DEB","OBJECT_ID":"1997-051CX","EPOCH":"2026-03-04T08:05:53.413728","MEAN_MOTION":14.97571719,"ECCENTRICITY":0.0001808,"INCLINATION":86.3869,"RA_OF_ASC_NODE":353.0648,"ARG_OF_PERICENTER":60.517,"MEAN_ANOMALY":60.7136,"EPHEMERIS_TYPE":0,"CLASSIFICATION_TYPE":"U","NORAD_CAT_ID":34088,"ELEMENT_SET_NO":999,"REV_AT_EPOCH":89960,"BSTAR":0.0055534438,"MEAN_MOTION_DOT":0.00065375,"MEAN_MOTION_DDOT":0},{"OBJECT_NAME":"IRIDIUM 33 DEB","OBJECT_ID":"1997-051DA","EPOCH":"2026-03-04T06:54:49.877856","MEAN_MOTION":14.89210988,"ECCENTRICITY":0.00332444,"INCLINATION":86.3434,"RA_OF_ASC_NODE":29.2725,"ARG_OF_PERICENTER":17.5483,"MEAN_ANOMALY":342.6883,"EPHEMERIS_TYPE":0,"CLASSIFICATION_TYPE":"U","NORAD_CAT_ID":34091,"ELEMENT_SET_NO":999,"REV_AT_EPOCH":89077,"BSTAR":0.0083703124,"MEAN_MOTION_DOT":0.00080776,"MEAN_MOTION_DDOT":0},{"OBJECT_NAME":"IRIDIUM 33 DEB","OBJECT_ID":"1997-051DG","EPOCH":"2026-03-04T15:41:10.570848","MEAN_MOTION":14.35505793,"ECCENTRICITY":0.0083793,"INCLINATION":86.2019,"RA_OF_ASC_NODE":325.2449,"ARG_OF_PERICENTER":92.5688,"MEAN_ANOMALY":268.5104,"EPHEMERIS_TYPE":0,"CLASSIFICATION_TYPE":"U","NORAD_CAT_ID":34097,"ELEMENT_SET_NO":999,"REV_AT_EPOCH":88294,"BSTAR":0.0015558,"MEAN_MOTION_DOT":4.677e-5,"MEAN_MOTION_DDOT":0},{"OBJECT_NAME":"IRIDIUM 33 DEB","OBJECT_ID":"1997-051DY","EPOCH":"2026-03-04T09:10:10.432416","MEAN_MOTION":14.43058007,"ECCENTRICITY":0.00518193,"INCLINATION":86.2092,"RA_OF_ASC_NODE":296.1518,"ARG_OF_PERICENTER":182.8117,"MEAN_ANOMALY":177.28,"EPHEMERIS_TYPE":0,"CLASSIFICATION_TYPE":"U","NORAD_CAT_ID":34145,"ELEMENT_SET_NO":999,"REV_AT_EPOCH":88815,"BSTAR":0.001148893,"MEAN_MOTION_DOT":3.933e-5,"MEAN_MOTION_DDOT":0},{"OBJECT_NAME":"IRIDIUM 33 DEB","OBJECT_ID":"1997-051DZ","EPOCH":"2026-03-04T16:50:01.970016","MEAN_MOTION":14.49707659,"ECCENTRICITY":0.0025974,"INCLINATION":86.2838,"RA_OF_ASC_NODE":313.5936,"ARG_OF_PERICENTER":317.139,"MEAN_ANOMALY":66.6136,"EPHEMERIS_TYPE":0,"CLASSIFICATION_TYPE":"U","NORAD_CAT_ID":34146,"ELEMENT_SET_NO":999,"REV_AT_EPOCH":89294,"BSTAR":0.0008806,"MEAN_MOTION_DOT":3.422e-5,"MEAN_MOTION_DDOT":0},{"OBJECT_NAME":"IRIDIUM 33 DEB","OBJECT_ID":"1997-051EN","EPOCH":"2026-03-04T19:25:14.672640","MEAN_MOTION":14.38737,"ECCENTRICITY":0.0029194,"INCLINATION":86.3546,"RA_OF_ASC_NODE":13.237,"ARG_OF_PERICENTER":22.0571,"MEAN_ANOMALY":338.1876,"EPHEMERIS_TYPE":0,"CLASSIFICATION_TYPE":"U","NORAD_CAT_ID":34159,"ELEMENT_SET_NO":999,"REV_AT_EPOCH":89139,"BSTAR":0.00065818,"MEAN_MOTION_DOT":2.049e-5,"MEAN_MOTION_DDOT":0},{"OBJECT_NAME":"IRIDIUM 33 DEB","OBJECT_ID":"1997-051ES","EPOCH":"2026-03-04T03:59:28.243104","MEAN_MOTION":14.45677187,"ECCENTRICITY":0.00191301,"INCLINATION":86.3309,"RA_OF_ASC_NODE":327.4883,"ARG_OF_PERICENTER":225.8608,"MEAN_ANOMALY":301.5122,"EPHEMERIS_TYPE":0,"CLASSIFICATION_TYPE":"U","NORAD_CAT_ID":34350,"ELEMENT_SET_NO":999,"REV_AT_EPOCH":89469,"BSTAR":0.000454642,"MEAN_MOTION_DOT":1.631e-5,"MEAN_MOTION_DDOT":0},{"OBJECT_NAME":"IRIDIUM 33 DEB","OBJECT_ID":"1997-051FJ","EPOCH":"2026-03-04T08:36:24.397344","MEAN_MOTION":14.54947547,"ECCENTRICITY":0.00178411,"INCLINATION":86.3724,"RA_OF_ASC_NODE":13.7811,"ARG_OF_PERICENTER":222.8739,"MEAN_ANOMALY":295.8482,"EPHEMERIS_TYPE":0,"CLASSIFICATION_TYPE":"U","NORAD_CAT_ID":34366,"ELEMENT_SET_NO":999,"REV_AT_EPOCH":89368,"BSTAR":0.0019058202,"MEAN_MOTION_DOT":8.236e-5,"MEAN_MOTION_DDOT":0},{"OBJECT_NAME":"IRIDIUM 33 DEB","OBJECT_ID":"1997-051FT","EPOCH":"2026-03-04T06:15:05.540256","MEAN_MOTION":14.18167672,"ECCENTRICITY":0.01008175,"INCLINATION":86.4352,"RA_OF_ASC_NODE":149.8658,"ARG_OF_PERICENTER":227.0158,"MEAN_ANOMALY":187.9074,"EPHEMERIS_TYPE":0,"CLASSIFICATION_TYPE":"U","NORAD_CAT_ID":34375,"ELEMENT_SET_NO":999,"REV_AT_EPOCH":87867,"BSTAR":0.00062456724,"MEAN_MOTION_DOT":1.366e-5,"MEAN_MOTION_DDOT":0},{"OBJECT_NAME":"IRIDIUM 33 DEB","OBJECT_ID":"1997-051FU","EPOCH":"2026-03-04T10:57:23.911200","MEAN_MOTION":14.64437708,"ECCENTRICITY":0.00223967,"INCLINATION":86.3001,"RA_OF_ASC_NODE":329.761,"ARG_OF_PERICENTER":254.2155,"MEAN_ANOMALY":105.6588,"EPHEMERIS_TYPE":0,"CLASSIFICATION_TYPE":"U","NORAD_CAT_ID":34376,"ELEMENT_SET_NO":999,"REV_AT_EPOCH":89202,"BSTAR":0.0026622791,"MEAN_MOTION_DOT":0.00014172,"MEAN_MOTION_DDOT":0},{"OBJECT_NAME":"IRIDIUM 33 DEB","OBJECT_ID":"1997-051GB","EPOCH":"2026-03-04T06:17:22.481664","MEAN_MOTION":15.01746722,"ECCENTRICITY":0.00086871,"INCLINATION":86.3952,"RA_OF_ASC_NODE":334.235,"ARG_OF_PERICENTER":154.2055,"MEAN_ANOMALY":335.9794,"EPHEMERIS_TYPE":0,"CLASSIFICATION_TYPE":"U","NORAD_CAT_ID":34486,"ELEMENT_SET_NO":999,"REV_AT_EPOCH":90207,"BSTAR":0.0040506248,"MEAN_MOTION_DOT":0.000531,"MEAN_MOTION_DDOT":0}]
